[Satellite]
VERSION=1.1
NAME=ZDPS 2B
NICKNAME=ZDPS 2B
TLE1=1 40902U 15049D   17186.24885561  .00000744  00000-0  41999-4 0  9997
TLE2=2 40902  97.4447 191.8850 0014740 154.1217 206.0756 15.16088200 99062
